STARLINK-30441          
1 57869U 23144F   26067.99352673 -.00000376  00000+0 -43216-5 0  9992
2 57869  42.9993 288.8591 0001239 270.5362  89.5347 15.26742636137496
BANDWAGON-4 OBJECT Q    
1 66307U 25248Q   26067.98911828  .00022547  00000+0  92242-3 0  9991
2 66307  45.4076 295.4821 0011280 209.4727 150.5526 15.23978167 19300
